0 DELTA 1 DEB
1 08968U 75004BA  13281.86044632  .00000351  00000-0  15352-3 0   679
2 08968 097.6829 039.7575 0137274 283.1953 192.0350 14.23964711948330
0 DELTA 1 DEB
1 08968U 75004BA  13284.18008341  .00000437  00000-0  18765-3 0   681
2 08968 097.6833 041.7870 0137312 276.2098 203.2047 14.23967670948663
0 DELTA 1 DEB
1 08968U 75004BA  13286.33884021  .00000406  00000-0  17524-3 0   696
2 08968 097.6838 043.6758 0137359 269.7019 109.6774 14.23969790948970
0 DELTA 1 DEB
1 08968U 75004BA  13288.59642544  .00000630  00000-0  26360-3 0   707
2 08968 097.6843 045.6513 0137423 262.9147 162.7782 14.23972203949294
0 DELTA 1 DEB
1 08968U 75004BA  13290.78597666  .00000623  00000-0  26106-3 0   716
2 08968 097.6844 047.5675 0137527 256.3401 227.1260 14.23975721949600
0 DELTA 1 DEB
1 08968U 75004BA  13292.82959514  .00000759  00000-0  31455-3 0   721
2 08968 097.6843 049.3560 0137606 250.1986 263.4063 14.23977676949896
0 DELTA 1 DEB
1 08968U 75004BA  13294.86094228  .00000773  00000-0  32001-3 0   734
2 08968 097.6843 051.1338 0137700 244.1047 236.7827 14.23981383950181
